OBJECT_NAME,OBJECT_ID,EPOCH,MEAN_MOTION,ECCENTRICITY,INCLINATION,RA_OF_ASC_NODE,ARG_OF_PERICENTER,MEAN_ANOMALY,EPHEMERIS_TYPE,CLASSIFICATION_TYPE,NORAD_CAT_ID,ELEMENT_SET_NO,REV_AT_EPOCH,BSTAR,MEAN_MOTION_DOT,MEAN_MOTION_DDOT
AAUSAT 3,2013-009B,2026-06-30T10:51:56.114784,14.39955685,.00116321,98.3703,4.9448,166.0748,194.0763,0,U,39087,999,69908,.21413121E-3,.631E-5,0
STRAND-1,2013-009E,2026-06-30T11:49:53.734656,14.37171160,.00084907,98.3924,1.4000,183.0829,177.0307,0,U,39090,999,69897,.11203189E-3,.291E-5,0
BRITE-AUSTRIA,2013-009F,2026-06-30T10:36:25.881408,14.36547215,.00098259,98.3999,0.5499,194.0076,166.0839,0,U,39091,999,69895,.74807092E-4,.177E-5,0
UNIBRITE,2013-009G,2026-06-30T10:55:47.875872,14.36418512,.0008822,98.4037,0.6771,189.5943,170.5077,0,U,39092,999,69889,.7093203E-4,.165E-5,0
AIST-2 (RS43),2013-015D,2026-06-30T13:22:21.959040,15.26429229,.00177318,64.8670,213.6094,248.0398,111.8849,0,U,39133,999,72594,.18435462E-3,.4632E-4,0
GAOFEN-1,2013-018A,2026-06-30T14:47:38.190336,14.76504732,.0016016,97.9097,253.4121,219.3865,140.6181,0,U,39150,999,71022,.16219E-3,.1081E-4,0
NEE-01 PEGASO,2013-018B,2026-06-30T09:29:33.079200,14.93723897,.00136367,98.1237,325.9834,118.7940,241.4650,0,U,39151,999,71267,.24425523E-3,.2528E-4,0
TURKSAT-3USAT,2013-018C,2026-06-30T06:05:23.714016,14.96503637,.00128627,97.7933,272.0246,61.7349,298.5169,0,U,39152,999,71304,.29218155E-3,.3266E-4,0
CUBEBUG-1 (CAPITAN BETO),2013-018D,2026-06-30T09:35:46.027392,14.97383410,.00133156,98.1681,341.9293,103.4942,256.7763,0,U,39153,999,71304,.35192527E-3,.4033E-4,0
PROBA-V,2013-021A,2026-06-30T11:21:28.368000,14.23600179,.00054352,98.3593,159.4244,93.1429,267.0372,0,U,39159,999,68300,.57481707E-4,.9E-6,0
ESTCUBE 1,2013-021C,2026-06-30T02:17:43.387584,14.81437479,.00075006,97.7287,234.8274,343.2837,16.8128,0,U,39161,999,70693,.20279911E-3,.1537E-4,0
ARIRANG-5 (KOMPSAT-5),2013-042A,2026-06-30T04:50:36.969792,15.04527377,.00050779,97.6190,7.7178,91.6658,268.5150,0,U,39227,999,70581,.14652908E-3,.1992E-4,0
GONETS-M 5,2013-048A,2026-06-30T13:23:21.391872,12.42891957,.00167062,82.4834,335.0448,180.7180,179.3879,0,U,39249,999,58054,-.53691739E-3,-.64E-6,0
GONETS-M 7,2013-048C,2026-06-30T12:29:39.941952,12.42914809,.0017472,82.4899,337.9974,182.1569,177.9438,0,U,39251,999,58049,-.41873459E-3,-.48E-6,0
FENGYUN 3C,2013-052A,2026-06-30T13:01:06.509280,14.15757900,.00144785,98.4987,154.8044,349.8765,10.2116,0,U,39260,999,66045,.57348208E-4,.71E-6,0
CASSIOPE,2013-055A,2026-06-30T14:31:59.174400,15.26416609,.02876299,80.9129,50.4124,17.2878,343.7900,0,U,39265,999,66971,.45756579E-3,.42371E-3,-.415929E-6
APRIZESAT 7,2013-066A,2026-06-30T08:52:20.218944,14.91591019,.00361409,97.7714,134.4004,165.2377,194.9906,0,U,39416,999,68319,.11541895E-3,.1114E-4,0
ZACUBE-1 (TSHEPISOSAT),2013-066B,2026-06-30T11:18:56.914848,15.01258663,.00426621,97.8044,143.8762,202.7803,157.1529,0,U,39417,999,68272,.21666338E-3,.2774E-4,0
APRIZESAT 8,2013-066K,2026-06-30T09:24:15.023520,14.87675304,.00444816,97.8225,128.6760,241.6360,118.0367,0,U,39425,999,68163,.98853541E-4,.858E-5,0
CINEMA-3 (KHUSAT-2),2013-066L,2026-06-30T13:04:21.915840,14.78323691,.00900863,97.8393,93.3908,168.0489,192.2889,0,U,39426,999,67642,.14379707E-3,.1063E-4,0
TRITON-1,2013-066M,2026-06-30T14:22:49.474272,14.81747965,.00893455,97.8244,91.1009,189.6375,170.3128,0,U,39427,999,67607,.17170786E-3,.1393E-4,0
DELFI-N3XT,2013-066N,2026-06-30T07:05:14.695872,14.95204019,.00746143,97.8335,101.5952,161.9771,198.4122,0,U,39428,999,67658,.39845884E-3,.4567E-4,0
GOMX-1,2013-066Q,2026-06-30T12:46:04.331712,14.69504380,.01295267,97.6473,21.1523,35.1627,325.8042,0,U,39430,999,67187,.25714973E-3,.1683E-4,0
BRITE-PL1 (LEM),2013-066R,2026-06-30T06:59:32.351424,14.51378093,.01891796,97.7974,292.6880,330.8399,28.2337,0,U,39431,999,66583,.63951694E-4,.27E-5,0
ICUBE-1,2013-066S,2026-06-30T10:31:29.014464,15.26169182,.00138537,97.5687,167.2732,285.5603,74.4106,0,U,39432,999,68643,.4716897E-3,.12155E-3,0
VELOX-PII,2013-066Y,2026-06-30T10:30:10.964160,14.93188847,.00512832,97.8750,132.8179,300.0475,59.5662,0,U,39438,999,67981,.23710702E-3,.2478E-4,0
CUBEBUG-2 (LO-74),2013-066AA,2026-06-30T09:25:49.441440,14.93867811,.00569621,97.8910,130.4277,345.3652,14.5915,0,U,39440,999,67896,.4062188E-3,.4394E-4,0
NEE-02 KRYSAOR,2013-066AB,2026-06-30T08:00:53.562528,14.86678216,.00668064,97.8896,120.4552,27.9353,332.5423,0,U,39441,999,67815,.27186489E-3,.2457E-4,0
FUNCUBE-1 (AO-73),2013-066AE,2026-06-30T10:42:46.740384,15.09646175,.00370868,97.8283,153.1705,155.7745,204.5238,0,U,39444,999,68166,.3873265E-3,.6265E-4,0
HINCUBE,2013-066AF,2026-06-30T10:05:24.357984,15.08423810,.00336407,97.7970,150.1426,162.6409,197.5978,0,U,39445,999,68152,.34435533E-3,.5362E-4,0
UWE-3,2013-066AG,2026-06-30T10:47:25.367424,14.97123484,.00470056,97.8711,137.6146,275.9070,83.6795,0,U,39446,999,67956,.23877853E-3,.2754E-4,0
SMDC ONE 2.4,2013-072H,2026-06-30T13:40:08.314752,15.18451678,.01469285,120.4922,43.7612,33.1900,327.8292,0,U,39469,999,11986,.45036786E-3,.12049E-3,0
CP8 (IPEX),2013-072K,2026-06-30T11:56:00.487968,15.08240215,.0166846,120.4680,349.0122,16.4220,344.2172,0,U,39471,999,11724,.26012043E-3,.5205E-4,0
COSMOS 2488 (RODNIK-S 7),2013-076A,2026-06-30T13:28:00.665184,12.42905570,.00208602,82.4830,160.3625,67.7891,292.5399,0,U,39483,999,56755,-.11431616E-2,-.148E-5,0
COSMOS 2489 (RODNIK-S 8),2013-076B,2026-06-30T12:52:42.429216,12.42879374,.00226811,82.4866,161.7608,67.7011,292.6470,0,U,39484,999,56760,-.93290286E-3,-.119E-5,0
COSMOS 2490 (RODNIK-S 9),2013-076C,2026-06-30T14:08:10.335264,12.42878719,.00228952,82.4814,159.7899,82.3685,277.9994,0,U,39485,999,56754,-.98470613E-4,-.4E-7,0
AIST-1 (RS41),2013-078C,2026-06-30T12:52:35.956992,14.96102253,.00154757,82.4161,257.9428,229.2940,130.6938,0,U,39492,999,67724,.55964912E-4,.656E-5,0
KAZEOSAT 1,2014-024A,2026-06-30T13:14:24.516960,14.42085541,.00011795,98.3209,253.6667,75.8580,284.2741,0,U,39731,999,64048,.10331261E-3,.297E-5,0
COSMOS 2496 (RODNIK-S 10),2014-028A,2026-06-30T13:06:58.477824,12.42878716,.0021272,82.4463,100.3650,51.3458,308.9521,0,U,39761,999,54917,-.25808153E-3,-.26E-6,0
COSMOS 2497 (RODNIK-S 11),2014-028B,2026-06-30T12:31:08.045760,12.42894719,.00217711,82.4511,102.0755,46.6113,313.6775,0,U,39762,999,54917,.42143564E-3,.68E-6,0
COSMOS 2498 (RODNIK-S 12),2014-028C,2026-06-30T13:53:27.566592,12.42980694,.00224838,82.4471,100.5210,46.0582,314.2348,0,U,39763,999,54921,.64604717E-3,.1E-5,0
COSMOS 2499 (RS47),2014-028E,2026-06-30T12:52:34.895136,12.82902790,.02308197,82.4485,243.4214,330.5518,28.2740,0,U,39765,999,56673,.15830542E-3,.52E-6,0
HODOYOSHI-4,2014-033B,2026-06-30T13:10:51.595392,14.88159681,.00219237,97.5449,5.7269,261.2254,98.6480,0,U,40011,999,65079,.16993105E-3,.152E-4,0
UNISAT-6,2014-033C,2026-06-30T09:04:35.930496,14.88308436,.00454229,97.7890,333.8587,26.7398,333.6146,0,U,40012,999,64812,.28138022E-3,.2595E-4,0
DEIMOS-2,2014-033D,2026-06-30T13:56:09.653856,14.93757011,.00008014,97.5813,55.5983,59.0867,301.0432,0,U,40013,999,63972,.79542957E-4,.788E-5,0
BUGSAT-1 (TITA),2014-033E,2026-06-30T13:41:10.726656,15.15732328,.00290181,98.0441,274.9028,133.4257,226.9396,0,U,40014,999,65786,.24375191E-3,.4619E-4,0
SAUDISAT 4,2014-033G,2026-06-30T08:58:47.684928,14.79560835,.00454805,97.7598,327.0537,32.1217,328.2752,0,U,40016,999,64802,.84936607E-4,.595E-5,0
APRIZESAT 9,2014-033J,2026-06-30T07:22:29.296992,14.74233565,.0066703,97.9077,314.1862,157.0375,203.3840,0,U,40018,999,64549,.12496568E-3,.803E-5,0
BRITE-CA1 (TORONTO),2014-033L,2026-06-30T08:31:01.000416,14.72697519,.00774864,97.9755,310.0412,234.1487,125.2508,0,U,40020,999,64415,.1483446E-3,.937E-5,0
DUCHIFAT-1,2014-033M,2026-06-30T02:55:44.735520,15.67349630,.00004958,98.0447,242.1254,107.7181,252.4132,0,U,40021,999,65777,.98876381E-3,.10757E-2,0
NANOSATC-BR1,2014-033Q,2026-06-29T13:16:17.313888,15.31847627,.00051631,98.0715,214.0382,133.3825,226.7845,0,U,40024,999,65587,.50484786E-3,.15457E-3,0
QB50P1,2014-033R,2026-06-30T06:21:04.432032,15.18453201,.00091928,98.0957,193.3288,170.0607,190.0809,0,U,40025,999,65501,.37202082E-3,.7596E-4,0
DTUSAT-2,2014-033W,2026-06-29T23:37:31.602720,15.15177343,.00080016,98.0860,179.5253,178.2419,181.8841,0,U,40030,999,65462,.38416916E-3,.7141E-4,0
QB50P2,2014-033Y,2026-06-29T23:27:33.028704,15.15322126,.00090963,98.0748,178.6550,125.6149,234.5930,0,U,40032,999,65460,.3830701E-3,.7152E-4,0
PERSEUS-M1,2014-033AF,2026-06-30T09:59:45.505824,14.95675975,.00099666,97.9649,125.7659,251.6407,108.3730,0,U,40039,999,65261,.12619785E-3,.1344E-4,0
POLYITAN-1,2014-033AJ,2026-06-29T13:56:37.128192,15.33688122,.00088069,98.0936,208.0175,107.4053,252.8151,0,U,40042,999,65549,.53396055E-3,.17344E-3,0
TIGRISAT,2014-033AK,2026-06-30T09:19:09.725664,14.85208216,.00498752,97.7846,331.0986,32.8069,327.6225,0,U,40043,999,64758,.21188172E-3,.1801E-4,0
AISAT,2014-034B,2026-06-30T13:24:33.584256,15.09074667,.00094645,98.2388,94.9423,165.6919,194.4578,0,U,40054,999,64922,.64616263E-3,.10182E-3,0
CANX-4,2014-034C,2026-06-30T04:32:14.036640,14.81287257,.00121822,98.3105,56.9785,335.2162,24.8462,0,U,40055,999,64645,.12406375E-3,.911E-5,0
CANX-5,2014-034D,2026-06-30T14:13:22.800864,14.81305404,.00121558,98.3106,57.4412,334.0615,25.9985,0,U,40056,999,63732,.12434857E-3,.914E-5,0
VELOX-I,2014-034E,2026-06-30T13:14:41.777088,14.97995653,.00060754,98.2532,87.3123,212.1685,147.9165,0,U,40057,999,64860,.39003586E-3,.4542E-4,0
GONETS-M 10,2014-036C,2026-06-30T12:18:29.788128,12.42945472,.00229705,82.5124,299.3969,112.7837,247.5672,0,U,40063,999,54390,-.68413436E-3,-.85E-6,0
METEOR-M 2,2014-037A,2026-06-30T12:28:21.385344,14.21464446,.00061216,98.5115,156.7860,10.1796,349.9505,0,U,40069,999,62121,-.48119264E-4,-.147E-5,0
DX1,2014-037C,2026-06-30T12:34:12.210816,14.90025729,.00058986,98.3870,144.0352,221.0939,138.9833,0,U,40071,999,64809,.21026564E-3,.1967E-4,0
